NORAD_CAT_ID,OBJECT_NAME,OBJECT_TYPE,EPOCH,MEAN_MOTION,ECCENTRICITY,INCLINATION,RA_OF_ASC_NODE,ARG_OF_PERICENTER,MEAN_ANOMALY,BSTAR,MEAN_MOTION_DOT,MEAN_MOTION_DDOT,TLE_LINE0,TLE_LINE1,TLE_LINE2,SEMIMAJOR_AXIS,PERIOD,APOGEE,PERIGEE,DECAYED
53037.0,STARLINK-4153,PAYLOAD,2022-08-26 14:00:01,15.73175373,0.0001811999999999,53.2158,131.9361,32.3694,41.7233,0.00049011,0.00068656,0.0,0 STARLINK-4153,1 53037U 22076BD  22238.58335648  .00068656  00000-0  49011-3 0  9993,2 53037  53.2158 131.9361 0001812  32.3694  41.7233 15.73175373  1303,6727.965,91.535,351.0490000000001,348.611,0.0
53037.0,STARLINK-4153,PAYLOAD,2022-08-26 22:00:00,15.73248589,0.0001939,53.2155,130.2881,30.2627,132.6965,-0.00033654,-0.00047687,0.0,0 STARLINK-4153,1 53037U 22076BD  22238.91667824 -.00047687  00000-0 -33654-3 0  9993,2 53037  53.2155 130.2881 0001939  30.2627 132.6965 15.73248589  1304,6727.757,91.53,350.926,348.31699999999995,0.0
53037.0,STARLINK-4153,PAYLOAD,2022-08-27 14:00:01,15.73214455,0.0001681,53.2149,126.9874,29.7943,311.0847,6.4708000000000025e-06,2.88e-06,0.0,0 STARLINK-4153,1 53037U 22076BD  22239.58334491  .00000288  00000-0  64708-5 0  9998,2 53037  53.2149 126.9874 0001681  29.7943 311.0847 15.73214455  1306,6727.854,91.532,350.85,348.588,0.0
53037.0,STARLINK-4153,PAYLOAD,2022-08-27 22:00:00,15.73180871,0.0001916999999999,53.2151,125.3396,32.28,37.5376,-1.2519000000000003e-05,-2.376e-05,0.0,0 STARLINK-4153,1 53037U 22076BD  22239.91667824 -.00002376  00000-0 -12519-4 0  9998,2 53037  53.2151 125.3396 0001917  32.2800  37.5376 15.73180871  1305,6727.95,91.534,351.10400000000016,348.525,0.0
53037.0,STARLINK-4153,PAYLOAD,2022-08-28 06:00:00,15.73216079,0.0001955999999999,53.2151,123.6903,29.3581,129.3671,1.5773e-05,1.594e-05,0.0,0 STARLINK-4153,1 53037U 22076BD  22240.25001157  .00001594  00000-0  15773-4 0  9992,2 53037  53.2151 123.6903 0001956  29.3581 129.3671 15.73216079  8626,6727.849,91.532,351.03,348.398,0.0
53037.0,STARLINK-4153,PAYLOAD,2022-08-28 14:00:01,15.73193567,0.0001732,53.2151,122.0388,30.4678,217.223,0.00011094,0.00014973,0.0,0 STARLINK-4153,1 53037U 22076BD  22240.58334491  .00014973  00000-0  11094-3 0  9994,2 53037  53.2151 122.0388 0001732  30.4678 217.2230 15.73193567  1300,6727.9140000000025,91.534,350.944,348.61300000000006,0.0
53037.0,STARLINK-4153,PAYLOAD,2022-08-28 22:00:00,15.73211032,0.0001943999999999,53.2148,120.391,28.5278,308.0674,-0.00028828,-0.00040905,0.0,0 STARLINK-4153,1 53037U 22076BD  22240.91667824 -.00040905  00000-0 -28828-3 0  9999,2 53037  53.2148 120.3910 0001944  28.5278 308.0674 15.73211032  8730,6727.864000000001,91.533,351.037,348.421,0.0
53037.0,STARLINK-4153,PAYLOAD,2022-08-29 14:00:01,15.73157234,0.0001764999999999,53.2143,117.0901,37.7477,116.6749,0.00054881,0.0007697,0.0,0 STARLINK-4153,1 53037U 22076BD  22241.58334491  .00076970  00000-0  54881-3 0  9991,2 53037  53.2143 117.0901 0001765  37.7477 116.6749 15.73157234  1307,6728.017,91.536,351.07,348.695,0.0
53037.0,STARLINK-4153,PAYLOAD,2022-08-29 16:00:00,15.73174942,0.0001784,53.2145,116.6779,38.238,228.3948,0.00032043,0.00044542,0.0,0 STARLINK-4153,1 53037U 22076BD  22241.66667824  .00044542  00000-0  32043-3 0  9995,2 53037  53.2145 116.6779 0001784  38.2380 228.3948 15.73174942  8840,6727.967,91.535,351.032,348.631,0.0
53037.0,STARLINK-4153,PAYLOAD,2022-08-29 22:00:00,15.73197044,0.0001983,53.2144,115.4424,34.2014,209.1173,9.1056e-05,0.00012176,0.0,0 STARLINK-4153,1 53037U 22076BD  22241.91667824  .00012176  00000-0  91056-4 0  9991,2 53037  53.2144 115.4424 0001983  34.2014 209.1173 15.73197044  1303,6727.904,91.533,351.103,348.434,0.0
53037.0,STARLINK-4153,PAYLOAD,2022-08-30 14:00:01,15.73212976,0.0001806,53.2147,112.141,34.7935,26.4383,-0.00034426,-0.00048686,0.0,0 STARLINK-4153,1 53037U 22076BD  22242.58334491 -.00048686  00000-0 -34426-3 0  9990,2 53037  53.2147 112.1410 0001806  34.7935  26.4383 15.73212976  1301,6727.858,91.532,350.93800000000016,348.5080000000001,0.0
53037.0,STARLINK-4153,PAYLOAD,2022-08-30 22:00:00,15.73166103,0.0002084,53.2144,110.4933,34.8554,115.3062,8.9411e-06,6.32e-06,0.0,0 STARLINK-4153,1 53037U 22076BD  22242.91667824  .00000632  00000-0  89411-5 0  9999,2 53037  53.2144 110.4933 0002084  34.8554 115.3062 15.73166103  1308,6727.9919999999975,91.535,351.259,348.455,0.0
53037.0,STARLINK-4153,PAYLOAD,2022-08-31 14:00:01,15.73212044,0.0001896,53.2142,107.1923,42.5728,285.3874,-0.00025044,-0.0003563999999999,0.0,0 STARLINK-4153,1 53037U 22076BD  22243.58334491 -.00035640  00000-0 -25044-3 0  9993,2 53037  53.2142 107.1923 0001896  42.5728 285.3874 15.73212044  1302,6727.861,91.532,351.001,348.45,0.0
53037.0,STARLINK-4153,PAYLOAD,2022-08-31 22:00:00,15.73165007,0.0002183,53.2143,105.5448,41.8021,15.091,0.00016567,0.00022659,0.0,0 STARLINK-4153,1 53037U 22076BD  22243.91667824  .00022659  00000-0  16567-3 0  9993,2 53037  53.2143 105.5448 0002183  41.8021  15.0910 15.73165007  1300,6727.995,91.535,351.329,348.391,0.0
53037.0,STARLINK-4153,PAYLOAD,2022-09-01 14:00:01,15.73207433,0.0002029999999999,53.2148,102.2433,45.3463,189.4352,0.00047556,0.00066677,0.0,0 STARLINK-4153,1 53037U 22076BD  22244.58335648  .00066677  00000-0  47556-3 0  9993,2 53037  53.2148 102.2433 0002030  45.3463 189.4352 15.73207433  1309,6727.874,91.533,351.105,348.37300000000016,0.0
53037.0,STARLINK-4153,PAYLOAD,2022-09-01 22:00:00,15.73267299,0.0002195999999999,53.2146,100.5959,39.8291,283.849,-0.00026313,-0.00037496,0.0,0 STARLINK-4153,1 53037U 22076BD  22244.91667824 -.00037496  00000-0 -26313-3 0  9991,2 53037  53.2146 100.5959 0002196  39.8291 283.8490 15.73267299  1309,6727.703,91.529,351.046,348.091,0.0
53037.0,STARLINK-4153,PAYLOAD,2022-09-02 06:00:00,15.73248881,0.0001965,53.2142,98.9454,35.4256,17.236,-0.00065448,-0.00091678,0.0,0 STARLINK-4153,1 53037U 22076BD  22245.25001157 -.00091678  00000-0 -65448-3 0  9994,2 53037  53.2142  98.9454 0001965  35.4256  17.2360 15.73248881  9412,6727.755999999999,91.53,350.9430000000001,348.2990000000001,0.0
53037.0,STARLINK-4153,PAYLOAD,2022-09-02 14:00:01,15.73176209,0.0001662,53.2147,97.2947,35.6512,105.9709,0.00031196,0.00043344,0.0,0 STARLINK-4153,1 53037U 22076BD  22245.58334491  .00043344  00000-0  31196-3 0  9998,2 53037  53.2147  97.2947 0001662  35.6512 105.9709 15.73176209  9468,6727.9630000000025,91.535,350.946,348.71,0.0
53037.0,STARLINK-4153,PAYLOAD,2022-09-02 22:00:01,15.73181082,0.0001916999999999,53.2148,95.6473,29.8901,200.6975,0.00027861,0.0003863,0.0,0 STARLINK-4153,1 53037U 22076BD  22245.91668981  .00038630  00000-0  27861-3 0  9995,2 53037  53.2148  95.6473 0001917  29.8901 200.6975 15.73181082  1303,6727.949000000001,91.534,351.10400000000016,348.524,0.0
53037.0,STARLINK-4153,PAYLOAD,2022-09-03 00:00:00,15.73171449,0.0001925,53.215,95.2352,28.4309,314.324,0.00053654,0.00075267,0.0,0 STARLINK-4153,1 53037U 22076BD  22246.00001157  .00075267  00000-0  53654-3 0  9998,2 53037  53.2150  95.2352 0001925  28.4309 314.3240 15.73171449  9531,6727.977,91.535,351.13699999999994,348.546,0.0
53037.0,STARLINK-4153,PAYLOAD,2022-09-03 14:00:01,15.73189171,0.0001633,53.2155,92.3461,26.4217,21.9896,0.00019702,0.00027107,0.0,0 STARLINK-4153,1 53037U 22076BD  22246.58334491  .00027107  00000-0  19702-3 0  9997,2 53037  53.2155  92.3461 0001633  26.4217  21.9896 15.73189171  9626,6727.926,91.534,350.89,348.69199999999995,0.0
53037.0,STARLINK-4153,PAYLOAD,2022-09-03 22:00:00,15.73207169,0.0001901,53.2153,90.6986,21.7968,115.5597,0.00044659,0.00062545,0.0,0 STARLINK-4153,1 53037U 22076BD  22246.91667824  .00062545  00000-0  44659-3 0  9997,2 53037  53.2153  90.6986 0001901  21.7968 115.5597 15.73207169  1309,6727.875,91.533,351.019,348.461,0.0
53037.0,STARLINK-4153,PAYLOAD,2022-09-04 06:00:00,15.732972699999998,0.0001837,53.215,89.0478,25.1221,201.1882,-0.00063794,-0.00089581,0.0,0 STARLINK-4153,1 53037U 22076BD  22247.25001157 -.00089581  00000-0 -63794-3 0  9998,2 53037  53.2150  89.0478 0001837  25.1221 201.1882 15.73297270  9727,6727.618,91.528,350.719,348.247,0.0
53037.0,STARLINK-4153,PAYLOAD,2022-09-04 14:00:01,15.73259595,0.0001785,53.2153,87.3975,34.4565,280.9303,-0.00038797,-0.00054858,0.0,0 STARLINK-4153,1 53037U 22076BD  22247.58335648 -.00054858  00000-0 -38797-3 0  9993,2 53037  53.2153  87.3975 0001785  34.4565 280.9303 15.73259595  1306,6727.725,91.53,350.791,348.389,0.0
53037.0,STARLINK-4153,PAYLOAD,2022-09-04 16:00:00,15.73260988,0.0001854,53.2153,86.9857,32.9175,34.6496,-0.00057104,-0.00080216,0.0,0 STARLINK-4153,1 53037U 22076BD  22247.66667824 -.00080216  00000-0 -57104-3 0  9996,2 53037  53.2153  86.9857 0001854  32.9175  34.6496 15.73260988  9793,6727.721,91.53,350.834,348.339,0.0
53037.0,STARLINK-4153,PAYLOAD,2022-09-04 20:00:01,15.73231142,0.0001986999999999,53.2151,86.1621,30.9372,261.122,-0.00050373,-0.00070824,0.0,0 STARLINK-4153,1 53037U 22076BD  22247.83334491 -.00070824  00000-0 -50373-3 0  9991,2 53037  53.2151  86.1621 0001987  30.9372 261.1220 15.73231142  1307,6727.806,91.531,351.0080000000001,348.335,0.0
53037.0,STARLINK-4153,PAYLOAD,2022-09-05 06:00:00,15.73242539,0.0001861,53.2156,84.0991,24.5516,108.6791,-0.00032536,-0.00046119,0.0,0 STARLINK-4153,1 53037U 22076BD  22248.25001157 -.00046119  00000-0 -32536-3 0  9999,2 53037  53.2156  84.0991 0001861  24.5516 108.6791 15.73242539  9880,6727.774,91.531,350.891,348.38699999999994,0.0
53037.0,STARLINK-4153,PAYLOAD,2022-09-05 14:00:01,15.73229893,0.0001759,53.2159,82.449,27.6179,194.5616,-0.00052674,-0.00073996,0.0,0 STARLINK-4153,1 53037U 22076BD  22248.58334491 -.00073996  00000-0 -52674-3 0  9993,2 53037  53.2159  82.4490 0001759  27.6179 194.5616 15.73229893  1301,6727.81,91.531,350.858,348.492,0.0
53037.0,STARLINK-4153,PAYLOAD,2022-09-05 22:00:00,15.73138974,0.0002070999999999,53.2156,80.8014,24.3836,286.7367,-0.00010085,-0.00014714,0.0,0 STARLINK-4153,1 53037U 22076BD  22248.91667824 -.00014714  00000-0 -10085-3 0  9992,2 53037  53.2156  80.8014 0002071  24.3836 286.7367 15.73138974  1300,6728.069,91.537,351.32800000000015,348.541,0.0
